MONITOR-4 (RS57S)       
1 57182U 23091S   26178.19677010  .00011602  00000+0  42472-3 0  9994
2 57182  97.5080 241.6885 0012699  69.9430 290.3175 15.28122656165823
MONITOR-2 (RS39S)       
1 57184U 23091U   26178.26009151  .00005318  00000+0  25691-3 0  9990
2 57184  97.5073 236.4779 0012674  80.6740 279.5926 15.19000516165483
SVYATOBOR 1 (RS60S)     
1 57187U 23091X   26178.28408475  .00009566  00000+0  36556-3 0  9998
2 57187  97.5092 242.1573 0010453  63.9034 296.3279 15.26781761165851
HORS 1                  
1 57188U 23091Y   26178.26890966  .00010078  00000+0  38371-3 0  9994
2 57188  97.5069 241.9030 0009901  64.0083 296.2174 15.26892468165853
VIZARD-METEO (RS38S)    
1 57189U 23091Z   26178.24418503  .00018365  00000+0  51957-3 0  9998
2 57189  97.5095 247.9321 0007490  46.4216 313.7648 15.36338341166235
SITRO-AIS 6 (CHIRKIN)   
1 57192U 23091AC  26178.27789895  .00010543  00000+0  41030-3 0  9991
2 57192  97.5069 241.3393 0012786  75.3578 284.9077 15.26121768165824
SITRO-AIS 8 (ANOKHIN)   
1 57193U 23091AD  26178.27484193  .00015962  00000+0  51129-3 0  9995
2 57193  97.5059 243.9008 0011293  68.5343 291.7102 15.32401854165998
SITRO-AIS 7 (FARTUSHNIY)
1 57194U 23091AE  26178.28312254  .00010017  00000+0  39371-3 0  9996
2 57194  97.5067 241.1642 0012705  76.2550 284.0102 15.25805329165810
AVION KALUGA 650        
1 57195U 23091AF  26178.23175890  .00006354  00000+0  29379-3 0  9991
2 57195  97.5091 237.7675 0011811  79.1101 281.1462 15.20456296165554
HORS 2                  
1 57196U 23091AG  26178.28819827  .00014703  00000+0  47546-3 0  9995
2 57196  97.5091 245.4563 0008671  57.3165 302.8912 15.32139705166070
A-SEANSAT-PG1           
1 57197U 23091AH  26178.29684392  .00019094  00000+0  52362-3 0  9994
2 57197  97.5084 248.0953 0007512  54.0464 306.1476 15.37300454166263
SITRO-AIS 10 (BURDAEV)  
1 57199U 23091AK  26178.26364215  .00020613  00000+0  53515-3 0  9992
2 57199  97.5085 249.0484 0006681  48.7033 311.4786 15.38982966166318
SITRO-AIS 9 (SHCHUKIN)  
1 57201U 23091AM  26178.29328870  .00021350  00000+0  56319-3 0  9990
2 57201  97.5082 248.8007 0006919  48.9287 311.2555 15.38483272166301
UTMN 2 (RS27S)          
1 57203U 23091AP  26178.24907534  .00014218  00000+0  45775-3 0  9996
2 57203  97.5091 245.6103 0008609  53.1258 307.0771 15.32291451166087
SITRO-AIS 12 (SMIRENNIY)
1 57204U 23091AQ  26178.28198394  .00022058  00000+0  57627-3 0  9997
2 57204  97.5095 249.2626 0006420  43.5734 316.6017 15.38777652166327
SITRO-AIS 11 (SHEFFER)  
1 57208U 23091AU  26178.29259434  .00021467  00000+0  55318-3 0  9993
2 57208  97.5094 249.5264 0006300  43.3434 316.8306 15.39206701166341
H2SAT (HEINRICH HERTZ)  
1 57213U 23093A   26176.31122957  .00000011  00000+0  00000+0 0  9997
2 57213   0.0482 107.4304 0000848  17.0766 261.6799  1.00269986 10990
KUZGTU 1 (RS47S)        
1 57217U 23091AV  26178.23701267  .00013739  00000+0  47321-3 0  9991
2 57217  97.5067 242.8200 0011853  66.8260 293.4228 15.30085780165911
QIANKUN-1               
1 57422U 23103B   26178.12969594  .00032053  21060-5  37318-4 0  9991
2 57422  96.1495 222.2784 0035021 145.4250 214.9323 16.07664039168893
FENGYUN 3F              
1 57490U 23111A   26178.26214502  .00000046  00000+0  42154-4 0  9998
2 57490  98.6834 248.0831 0001547  85.9531 274.1822 14.19940692150297
HJ-2F                   
1 57519U 23116A   26178.30891838  .00008380  00000+0  36462-3 0  9996
2 57519  97.3839 183.3514 0008712  20.6177 339.5409 15.22460059160299
XRISM                   
1 57800U 23137A   26178.02365504  .00004965  00000+0  27222-3 0  9996
2 57800  31.0027 295.8825 0007808  62.6884 297.4549 15.12547205154351
METEOR-M2 4             
1 59051U 24039A   26178.31268351 -.00000007  00000+0  16349-4 0  9995
2 59051  98.7014 137.4836 0007824 133.8346 226.3480 14.22430485120700
GRBBETA                 
1 60237U 24128C   26178.30784282  .00003542  00000+0  24775-3 0  9994
2 60237  61.9879 180.7560 0039378 136.7389 223.6809 15.06697529107798
TRANSPORTER-11 OBJECT A 
1 60468U 24149A   26178.20580778  .00009125  00000+0  28805-3 0  9997
2 60468  97.3736 258.1046 0003759 162.5073 197.6299 15.33065022103593
WARATAH SEED-1          
1 60469U 24149B   26178.20842482  .00013894  00000+0  39600-3 0  9994
2 60469  97.3694 258.7931 0002341 155.1819 204.9538 15.36188545103652
PHISAT 2                
1 60470U 24149C   26178.17713503  .00007556  00000+0  25333-3 0  9999
2 60470  97.3760 257.3380 0002029 154.2473 205.8870 15.31191002103522
LEMUR-2-TOMATOKECHUP    
1 60471U 24149D   26178.20421316  .00011169  00000+0  31843-3 0  9990
2 60471  97.3805 260.2770 0002300 156.5261 203.6088 15.36233630103707
CONNECTA IOT-1          
1 60472U 24149E   26178.21014600  .00004498  00000+0  19078-3 0  9999
2 60472  97.3762 254.3322 0001124 185.2528 174.8697 15.23613898103322
